ISS (ZARYA)             
1 25544U 98067A   26084.84151545  .00012012  00000+0  22938-3 0  9995
2 25544  51.6341 352.5134 0006235 232.7336 127.3084 15.48540672558833
POISK                   
1 36086U 09060A   26084.84151545  .00012012  00000+0  22938-3 0  9993
2 36086  51.6341 352.5134 0006235 232.7336 127.3084 15.48540672558612
CSS (TIANHE)            
1 48274U 21035A   26084.83710235  .00022588  00000+0  25952-3 0  9995
2 48274  41.4667 109.8475 0004448  22.3282 337.7750 15.61486977280138
ISS (NAUKA)             
1 49044U 21066A   26084.84151545  .00012012  00000+0  22938-3 0  9991
2 49044  51.6341 352.5134 0006235 232.7336 127.3084 15.48540672558654
FREGAT DEB              
1 49271U 11037PF  26084.79907389  .00010881  00000+0  15430-1 0  9998
2 49271  51.6470 252.3847 0962629  96.3352 274.7865 12.40686252214698
CSS (WENTIAN)           
1 53239U 22085A   26084.83710235  .00022588  00000+0  25952-3 0  9998
2 53239  41.4667 109.8475 0004448  22.3282 337.7750 15.61486977280225
CSS (MENGTIAN)          
1 54216U 22143A   26084.83710235  .00022588  00000+0  25952-3 0  9999
2 54216  41.4667 109.8475 0004448  22.3282 337.7750 15.61486977280221
TIANZHOU-9              
1 64786U 25149A   26084.83710235  .00022588  00000+0  25952-3 0  9991
2 64786  41.4667 109.8475 0004448  22.3282 337.7750 15.61486977280224
PROGRESS-MS 32          
1 65586U 25204A   26084.45430866  .00012951  00000+0  24673-3 0  9991
2 65586  51.6344 354.4276 0006214 231.1671 128.8763 15.48531543554503
YOTSUBA-KULOVER         
1 65941U 98067XN  26084.41019860  .00321157  00000+0  10646-2 0  9991
2 65941  51.6190 335.2800 0005219 185.9217 174.1727 15.88938001 25997
BOTAN                   
1 65943U 98067XQ  26084.10507867  .00295401  00000+0  10285-2 0  9999
2 65943  51.6223 337.0172 0005793 182.2406 177.8574 15.88011145 25941
HRC MONOBLOCK CAMERA    
1 66052U 98067XR  26084.74775729  .00049175  00000+0  51528-3 0  9996
2 66052  51.6284 344.3847 0003798 166.4366 193.6731 15.63893502 24906
