CCSDS_OMM_VERS = 2.0
CREATION_DATE  = 
ORIGINATOR     = 

OBJECT_NAME    = ISS (ZARYA)
OBJECT_ID      = 1998-067A
CENTER_NAME    = EARTH
REF_FRAME      = TEME
TIME_SYSTEM    = UTC
MEAN_ELEMENT_THEORY = SGP/SGP4

EPOCH          = 2026-03-25T20:11:46.934880
MEAN_MOTION    = 15.48540672
ECCENTRICITY   = .0006235
INCLINATION    = 51.6341
RA_OF_ASC_NODE = 352.5134
ARG_OF_PERICENTER = 232.7336
MEAN_ANOMALY   = 127.3084

EPHEMERIS_TYPE = 0
CLASSIFICATION_TYPE = U
NORAD_CAT_ID   = 25544
ELEMENT_SET_NO = 999
REV_AT_EPOCH   = 55883
BSTAR          = .22938E-3
MEAN_MOTION_DOT = .12012E-3
MEAN_MOTION_DDOT = 0

CCSDS_OMM_VERS = 2.0
CREATION_DATE  = 
ORIGINATOR     = 

OBJECT_NAME    = POISK
OBJECT_ID      = 2009-060A
CENTER_NAME    = EARTH
REF_FRAME      = TEME
TIME_SYSTEM    = UTC
MEAN_ELEMENT_THEORY = SGP/SGP4

EPOCH          = 2026-03-25T20:11:46.934880
MEAN_MOTION    = 15.48540672
ECCENTRICITY   = .0006235
INCLINATION    = 51.6341
RA_OF_ASC_NODE = 352.5134
ARG_OF_PERICENTER = 232.7336
MEAN_ANOMALY   = 127.3084

EPHEMERIS_TYPE = 0
CLASSIFICATION_TYPE = U
NORAD_CAT_ID   = 36086
ELEMENT_SET_NO = 999
REV_AT_EPOCH   = 55861
BSTAR          = .22938E-3
MEAN_MOTION_DOT = .12012E-3
MEAN_MOTION_DDOT = 0

CCSDS_OMM_VERS = 2.0
CREATION_DATE  = 
ORIGINATOR     = 

OBJECT_NAME    = CSS (TIANHE)
OBJECT_ID      = 2021-035A
CENTER_NAME    = EARTH
REF_FRAME      = TEME
TIME_SYSTEM    = UTC
MEAN_ELEMENT_THEORY = SGP/SGP4

EPOCH          = 2026-03-25T20:05:25.643040
MEAN_MOTION    = 15.61486977
ECCENTRICITY   = .0004448
INCLINATION    = 41.4667
RA_OF_ASC_NODE = 109.8475
ARG_OF_PERICENTER = 22.3282
MEAN_ANOMALY   = 337.7750

EPHEMERIS_TYPE = 0
CLASSIFICATION_TYPE = U
NORAD_CAT_ID   = 48274
ELEMENT_SET_NO = 999
REV_AT_EPOCH   = 28013
BSTAR          = .25952E-3
MEAN_MOTION_DOT = .22588E-3
MEAN_MOTION_DDOT = 0

CCSDS_OMM_VERS = 2.0
CREATION_DATE  = 
ORIGINATOR     = 

OBJECT_NAME    = ISS (NAUKA)
OBJECT_ID      = 2021-066A
CENTER_NAME    = EARTH
REF_FRAME      = TEME
TIME_SYSTEM    = UTC
MEAN_ELEMENT_THEORY = SGP/SGP4

EPOCH          = 2026-03-25T20:11:46.934880
MEAN_MOTION    = 15.48540672
ECCENTRICITY   = .0006235
INCLINATION    = 51.6341
RA_OF_ASC_NODE = 352.5134
ARG_OF_PERICENTER = 232.7336
MEAN_ANOMALY   = 127.3084

EPHEMERIS_TYPE = 0
CLASSIFICATION_TYPE = U
NORAD_CAT_ID   = 49044
ELEMENT_SET_NO = 999
REV_AT_EPOCH   = 55865
BSTAR          = .22938E-3
MEAN_MOTION_DOT = .12012E-3
MEAN_MOTION_DDOT = 0

CCSDS_OMM_VERS = 2.0
CREATION_DATE  = 
ORIGINATOR     = 

OBJECT_NAME    = FREGAT DEB
OBJECT_ID      = 2011-037PF
CENTER_NAME    = EARTH
REF_FRAME      = TEME
TIME_SYSTEM    = UTC
MEAN_ELEMENT_THEORY = SGP/SGP4

EPOCH          = 2026-03-25T19:10:39.984096
MEAN_MOTION    = 12.40686252
ECCENTRICITY   = .0962629
INCLINATION    = 51.6470
RA_OF_ASC_NODE = 252.3847
ARG_OF_PERICENTER = 96.3352
MEAN_ANOMALY   = 274.7865

EPHEMERIS_TYPE = 0
CLASSIFICATION_TYPE = U
NORAD_CAT_ID   = 49271
ELEMENT_SET_NO = 999
REV_AT_EPOCH   = 21469
BSTAR          = .1543E-1
MEAN_MOTION_DOT = .10881E-3
MEAN_MOTION_DDOT = 0

CCSDS_OMM_VERS = 2.0
CREATION_DATE  = 
ORIGINATOR     = 

OBJECT_NAME    = CSS (WENTIAN)
OBJECT_ID      = 2022-085A
CENTER_NAME    = EARTH
REF_FRAME      = TEME
TIME_SYSTEM    = UTC
MEAN_ELEMENT_THEORY = SGP/SGP4

EPOCH          = 2026-03-25T20:05:25.643040
MEAN_MOTION    = 15.61486977
ECCENTRICITY   = .0004448
INCLINATION    = 41.4667
RA_OF_ASC_NODE = 109.8475
ARG_OF_PERICENTER = 22.3282
MEAN_ANOMALY   = 337.7750

EPHEMERIS_TYPE = 0
CLASSIFICATION_TYPE = U
NORAD_CAT_ID   = 53239
ELEMENT_SET_NO = 999
REV_AT_EPOCH   = 28022
BSTAR          = .25952E-3
MEAN_MOTION_DOT = .22588E-3
MEAN_MOTION_DDOT = 0

CCSDS_OMM_VERS = 2.0
CREATION_DATE  = 
ORIGINATOR     = 

OBJECT_NAME    = CSS (MENGTIAN)
OBJECT_ID      = 2022-143A
CENTER_NAME    = EARTH
REF_FRAME      = TEME
TIME_SYSTEM    = UTC
MEAN_ELEMENT_THEORY = SGP/SGP4

EPOCH          = 2026-03-25T20:05:25.643040
MEAN_MOTION    = 15.61486977
ECCENTRICITY   = .0004448
INCLINATION    = 41.4667
RA_OF_ASC_NODE = 109.8475
ARG_OF_PERICENTER = 22.3282
MEAN_ANOMALY   = 337.7750

EPHEMERIS_TYPE = 0
CLASSIFICATION_TYPE = U
NORAD_CAT_ID   = 54216
ELEMENT_SET_NO = 999
REV_AT_EPOCH   = 28022
BSTAR          = .25952E-3
MEAN_MOTION_DOT = .22588E-3
MEAN_MOTION_DDOT = 0

CCSDS_OMM_VERS = 2.0
CREATION_DATE  = 
ORIGINATOR     = 

OBJECT_NAME    = TIANZHOU-9
OBJECT_ID      = 2025-149A
CENTER_NAME    = EARTH
REF_FRAME      = TEME
TIME_SYSTEM    = UTC
MEAN_ELEMENT_THEORY = SGP/SGP4

EPOCH          = 2026-03-25T20:05:25.643040
MEAN_MOTION    = 15.61486977
ECCENTRICITY   = .0004448
INCLINATION    = 41.4667
RA_OF_ASC_NODE = 109.8475
ARG_OF_PERICENTER = 22.3282
MEAN_ANOMALY   = 337.7750

EPHEMERIS_TYPE = 0
CLASSIFICATION_TYPE = U
NORAD_CAT_ID   = 64786
ELEMENT_SET_NO = 999
REV_AT_EPOCH   = 28022
BSTAR          = .25952E-3
MEAN_MOTION_DOT = .22588E-3
MEAN_MOTION_DDOT = 0

CCSDS_OMM_VERS = 2.0
CREATION_DATE  = 
ORIGINATOR     = 

OBJECT_NAME    = PROGRESS-MS 32
OBJECT_ID      = 2025-204A
CENTER_NAME    = EARTH
REF_FRAME      = TEME
TIME_SYSTEM    = UTC
MEAN_ELEMENT_THEORY = SGP/SGP4

EPOCH          = 2026-03-25T10:54:12.268224
MEAN_MOTION    = 15.48531543
ECCENTRICITY   = .00062149
INCLINATION    = 51.6344
RA_OF_ASC_NODE = 354.4276
ARG_OF_PERICENTER = 231.1671
MEAN_ANOMALY   = 128.8763

EPHEMERIS_TYPE = 0
CLASSIFICATION_TYPE = U
NORAD_CAT_ID   = 65586
ELEMENT_SET_NO = 999
REV_AT_EPOCH   = 55450
BSTAR          = .24672628E-3
MEAN_MOTION_DOT = .12951E-3
MEAN_MOTION_DDOT = 0

CCSDS_OMM_VERS = 2.0
CREATION_DATE  = 
ORIGINATOR     = 

OBJECT_NAME    = YOTSUBA-KULOVER
OBJECT_ID      = 1998-067XN
CENTER_NAME    = EARTH
REF_FRAME      = TEME
TIME_SYSTEM    = UTC
MEAN_ELEMENT_THEORY = SGP/SGP4

EPOCH          = 2026-03-25T09:50:41.159040
MEAN_MOTION    = 15.88938001
ECCENTRICITY   = .00052196
INCLINATION    = 51.6190
RA_OF_ASC_NODE = 335.2800
ARG_OF_PERICENTER = 185.9217
MEAN_ANOMALY   = 174.1727

EPHEMERIS_TYPE = 0
CLASSIFICATION_TYPE = U
NORAD_CAT_ID   = 65941
ELEMENT_SET_NO = 999
REV_AT_EPOCH   = 2599
BSTAR          = .10645966E-2
MEAN_MOTION_DOT = .321157E-2
MEAN_MOTION_DDOT = 0

CCSDS_OMM_VERS = 2.0
CREATION_DATE  = 
ORIGINATOR     = 

OBJECT_NAME    = BOTAN
OBJECT_ID      = 1998-067XQ
CENTER_NAME    = EARTH
REF_FRAME      = TEME
TIME_SYSTEM    = UTC
MEAN_ELEMENT_THEORY = SGP/SGP4

EPOCH          = 2026-03-25T02:31:18.797088
MEAN_MOTION    = 15.88011145
ECCENTRICITY   = .00057936
INCLINATION    = 51.6223
RA_OF_ASC_NODE = 337.0172
ARG_OF_PERICENTER = 182.2406
MEAN_ANOMALY   = 177.8574

EPHEMERIS_TYPE = 0
CLASSIFICATION_TYPE = U
NORAD_CAT_ID   = 65943
ELEMENT_SET_NO = 999
REV_AT_EPOCH   = 2594
BSTAR          = .10284675E-2
MEAN_MOTION_DOT = .295401E-2
MEAN_MOTION_DDOT = 0

CCSDS_OMM_VERS = 2.0
CREATION_DATE  = 
ORIGINATOR     = 

OBJECT_NAME    = HRC MONOBLOCK CAMERA
OBJECT_ID      = 1998-067XR
CENTER_NAME    = EARTH
REF_FRAME      = TEME
TIME_SYSTEM    = UTC
MEAN_ELEMENT_THEORY = SGP/SGP4

EPOCH          = 2026-03-25T17:56:46.229856
MEAN_MOTION    = 15.63893502
ECCENTRICITY   = .0003798
INCLINATION    = 51.6284
RA_OF_ASC_NODE = 344.3847
ARG_OF_PERICENTER = 166.4366
MEAN_ANOMALY   = 193.6731

EPHEMERIS_TYPE = 0
CLASSIFICATION_TYPE = U
NORAD_CAT_ID   = 66052
ELEMENT_SET_NO = 999
REV_AT_EPOCH   = 2490
BSTAR          = .51528E-3
MEAN_MOTION_DOT = .49175E-3
MEAN_MOTION_DDOT = 0

